{
  "type": "FeatureCollection",
  "features": [
    {
      "type": "Feature",
      "properties": {
        "norad_id": 34634,
        "name": "COSMOS 2251 DEB",
        "group": "cosmos-2251-debris",
        "lat": -69.73059167399873,
        "lon": -77.4916453860541,
        "alt_km": 717.2689669384526,
        "timestamp": "2025-12-03T20:47:58.620597+00:00",
        "meta_object_name": "COSMOS 2251 DEB",
        "meta_object_id": "1993-036XF",
        "meta_epoch": "2025-12-03T04:55:03.889632",
        "meta_mean_motion": 14.55607531,
        "meta_eccentricity": 0.00447165,
        "meta_inclination": 74.0529,
        "meta_ra_of_asc_node": 53.0232,
        "meta_arg_of_pericenter": 163.1109,
        "meta_mean_anomaly": 227.4386,
        "meta_ephemeris_type": 0,
        "meta_classification_type": "U",
        "meta_norad_cat_id": 34634,
        "meta_element_set_no": 999,
        "meta_rev_at_epoch": 88643,
        "meta_bstar": 0.00055498013,
        "meta_mean_motion_dot": 2.426e-05,
        "meta_mean_motion_ddot": 0,
        "tle_line1": "1 34634U 93036XF  25337.20490613  .00002426  00000+0  55498-3 0  9993",
        "tle_line2": "2 34634  74.0529  53.0232 0044716 163.1109 227.4386 14.55607531886435"
      },
      "geometry": {
        "type": "Point",
        "coordinates": [
          -77.4916453860541,
          -69.73059167399873
        ]
      }
    },
    {
      "type": "Feature",
      "properties": {
        "norad_id": 34635,
        "name": "COSMOS 2251 DEB",
        "group": "cosmos-2251-debris",
        "lat": 70.35394440672319,
        "lon": 141.11911544901247,
        "alt_km": 656.9040340151605,
        "timestamp": "2025-12-03T20:47:58.620607+00:00",
        "meta_object_name": "COSMOS 2251 DEB",
        "meta_object_id": "1993-036XG",
        "meta_epoch": "2025-12-03T09:16:59.475072",
        "meta_mean_motion": 14.6802345,
        "meta_eccentricity": 0.0029594,
        "meta_inclination": 74.0454,
        "meta_ra_of_asc_node": 88.7852,
        "meta_arg_of_pericenter": 160.579,
        "meta_mean_anomaly": 263.2582,
        "meta_ephemeris_type": 0,
        "meta_classification_type": "U",
        "meta_norad_cat_id": 34635,
        "meta_element_set_no": 999,
        "meta_rev_at_epoch": 73082,
        "meta_bstar": 0.0020278,
        "meta_mean_motion_dot": 0.00011695,
        "meta_mean_motion_ddot": 0,
        "tle_line1": "1 34635U 93036XG  25337.38679948  .00011695  00000+0  20278-2 0  9998",
        "tle_line2": "2 34635  74.0454  88.7852 0029594 160.5790 263.2582 14.68023450730823"
      },
      "geometry": {
        "type": "Point",
        "coordinates": [
          141.11911544901247,
          70.35394440672319
        ]
      }
    },
    {
      "type": "Feature",
      "properties": {
        "norad_id": 34637,
        "name": "COSMOS 2251 DEB",
        "group": "cosmos-2251-debris",
        "lat": 11.123116137170259,
        "lon": -65.14785983268956,
        "alt_km": 661.2598888785724,
        "timestamp": "2025-12-03T20:47:58.620618+00:00",
        "meta_object_name": "COSMOS 2251 DEB",
        "meta_object_id": "1993-036XJ",
        "meta_epoch": "2025-12-03T08:38:20.779008",
        "meta_mean_motion": 14.59934348,
        "meta_eccentricity": 0.0050664,
        "meta_inclination": 74.0477,
        "meta_ra_of_asc_node": 119.0417,
        "meta_arg_of_pericenter": 191.6838,
        "meta_mean_anomaly": 194.9044,
        "meta_ephemeris_type": 0,
        "meta_classification_type": "U",
        "meta_norad_cat_id": 34637,
        "meta_element_set_no": 999,
        "meta_rev_at_epoch": 88390,
        "meta_bstar": 0.0016283,
        "meta_mean_motion_dot": 7.923e-05,
        "meta_mean_motion_ddot": 0,
        "tle_line1": "1 34637U 93036XJ  25337.35996272  .00007923  00000+0  16283-2 0  9999",
        "tle_line2": "2 34637  74.0477 119.0417 0050664 191.6838 194.9044 14.59934348883903"
      },
      "geometry": {
        "type": "Point",
        "coordinates": [
          -65.14785983268956,
          11.123116137170259
        ]
      }
    },
    {
      "type": "Feature",
      "properties": {
        "norad_id": 34641,
        "name": "COSMOS 2251 DEB",
        "group": "cosmos-2251-debris",
        "lat": 53.622665280490395,
        "lon": 121.74670364416349,
        "alt_km": 704.6882416329454,
        "timestamp": "2025-12-03T20:47:58.620629+00:00",
        "meta_object_name": "COSMOS 2251 DEB",
        "meta_object_id": "1993-036XN",
        "meta_epoch": "2025-12-02T10:04:27.186240",
        "meta_mean_motion": 14.51860624,
        "meta_eccentricity": 0.00174848,
        "meta_inclination": 73.8377,
        "meta_ra_of_asc_node": 101.3202,
        "meta_arg_of_pericenter": 19.4191,
        "meta_mean_anomaly": 38.0033,
        "meta_ephemeris_type": 0,
        "meta_classification_type": "U",
        "meta_norad_cat_id": 34641,
        "meta_element_set_no": 999,
        "meta_rev_at_epoch": 88106,
        "meta_bstar": 0.0013562566,
        "meta_mean_motion_dot": 5.449e-05,
        "meta_mean_motion_ddot": 0,
        "tle_line1": "1 34641U 93036XN  25336.41975910  .00005449  00000+0  13563-2 0  9995",
        "tle_line2": "2 34641  73.8377 101.3202 0017484  19.4191  38.0033 14.51860624881060"
      },
      "geometry": {
        "type": "Point",
        "coordinates": [
          121.74670364416349,
          53.622665280490395
        ]
      }
    },
    {
      "type": "Feature",
      "properties": {
        "norad_id": 34642,
        "name": "COSMOS 2251 DEB",
        "group": "cosmos-2251-debris",
        "lat": 29.7310916093061,
        "lon": 4.59969061127273,
        "alt_km": 1020.0153937085579,
        "timestamp": "2025-12-03T20:47:58.620640+00:00",
        "meta_object_name": "COSMOS 2251 DEB",
        "meta_object_id": "1993-036XP",
        "meta_epoch": "2025-12-02T19:45:27.852192",
        "meta_mean_motion": 13.98924503,
        "meta_eccentricity": 0.02081543,
        "meta_inclination": 74.0054,
        "meta_ra_of_asc_node": 356.9781,
        "meta_arg_of_pericenter": 179.0772,
        "meta_mean_anomaly": 0.7028,
        "meta_ephemeris_type": 0,
        "meta_classification_type": "U",
        "meta_norad_cat_id": 34642,
        "meta_element_set_no": 999,
        "meta_rev_at_epoch": 85154,
        "meta_bstar": 0.0013075375,
        "meta_mean_motion_dot": 2.249e-05,
        "meta_mean_motion_ddot": 0,
        "tle_line1": "1 34642U 93036XP  25336.82323903  .00002249  00000+0  13075-2 0  9993",
        "tle_line2": "2 34642  74.0054 356.9781 0208154 179.0772   0.7028 13.98924503851547"
      },
      "geometry": {
        "type": "Point",
        "coordinates": [
          4.59969061127273,
          29.7310916093061
        ]
      }
    },
    {
      "type": "Feature",
      "properties": {
        "norad_id": 34671,
        "name": "COSMOS 2251 DEB",
        "group": "cosmos-2251-debris",
        "lat": 44.64314484924906,
        "lon": 167.8554689642408,
        "alt_km": 676.154388368228,
        "timestamp": "2025-12-03T20:47:58.620650+00:00",
        "meta_object_name": "COSMOS 2251 DEB",
        "meta_object_id": "1993-036XR",
        "meta_epoch": "2025-12-02T18:28:46.543296",
        "meta_mean_motion": 14.66635988,
        "meta_eccentricity": 0.00121385,
        "meta_inclination": 74.0249,
        "meta_ra_of_asc_node": 153.5364,
        "meta_arg_of_pericenter": 231.9142,
        "meta_mean_anomaly": 147.1832,
        "meta_ephemeris_type": 0,
        "meta_classification_type": "U",
        "meta_norad_cat_id": 34671,
        "meta_element_set_no": 999,
        "meta_rev_at_epoch": 88151,
        "meta_bstar": 0.0019192945,
        "meta_mean_motion_dot": 0.00010666,
        "meta_mean_motion_ddot": 0,
        "tle_line1": "1 34671U 93036XR  25336.76998314  .00010666  00000+0  19193-2 0  9991",
        "tle_line2": "2 34671  74.0249 153.5364 0012138 231.9142 147.1832 14.66635988881518"
      },
      "geometry": {
        "type": "Point",
        "coordinates": [
          167.8554689642408,
          44.64314484924906
        ]
      }
    },
    {
      "type": "Feature",
      "properties": {
        "norad_id": 34672,
        "name": "COSMOS 2251 DEB",
        "group": "cosmos-2251-debris",
        "lat": 58.83182837678002,
        "lon": 113.642595421768,
        "alt_km": 761.8307089311329,
        "timestamp": "2025-12-03T20:47:58.620660+00:00",
        "meta_object_name": "COSMOS 2251 DEB",
        "meta_object_id": "1993-036XS",
        "meta_epoch": "2025-12-03T05:16:26.844096",
        "meta_mean_motion": 14.36383689,
        "meta_eccentricity": 0.0023434,
        "meta_inclination": 74.0334,
        "meta_ra_of_asc_node": 323.0813,
        "meta_arg_of_pericenter": 37.198,
        "meta_mean_anomaly": 335.8708,
        "meta_ephemeris_type": 0,
        "meta_classification_type": "U",
        "meta_norad_cat_id": 34672,
        "meta_element_set_no": 999,
        "meta_rev_at_epoch": 65041,
        "meta_bstar": 0.00037825,
        "meta_mean_motion_dot": 1.085e-05,
        "meta_mean_motion_ddot": 0,
        "tle_line1": "1 34672U 93036XS  25337.21975514  .00001085  00000+0  37825-3 0  9998",
        "tle_line2": "2 34672  74.0334 323.0813 0023434  37.1980 335.8708 14.36383689650410"
      },
      "geometry": {
        "type": "Point",
        "coordinates": [
          113.642595421768,
          58.83182837678002
        ]
      }
    }
  ]
}